OBJECT_NAME,OBJECT_ID,EPOCH,MEAN_MOTION,ECCENTRICITY,INCLINATION,RA_OF_ASC_NODE,ARG_OF_PERICENTER,MEAN_ANOMALY,EPHEMERIS_TYPE,CLASSIFICATION_TYPE,NORAD_CAT_ID,ELEMENT_SET_NO,REV_AT_EPOCH,BSTAR,MEAN_MOTION_DOT,MEAN_MOTION_DDOT
KUZGTU 1 (RS47S),2023-091AV,2026-06-04T05:06:41.554944,15.29547520,.00121715,97.5065,219.5637,138.0553,222.1622,0,U,57217,999,16239,.48911984E-3,.13972E-3,0
SONATE-2,2024-043Q,2026-06-03T23:22:02.781120,15.57700323,.00063261,97.5529,304.5700,241.9322,118.1294,0,U,59112,999,12583,.52778692E-3,.39146E-3,0
MESAT1,2024-125G,2026-06-04T02:32:01.449312,15.61758967,.00083317,97.2302,12.3026,256.8066,103.2263,0,U,60209,999,10752,.69656311E-3,.60503E-3,0
OOV-CUBE (TUBSAT-30),2024-128F,2026-06-03T21:07:55.384032,15.02709877,.0046281,61.9958,271.9701,130.8013,229.7107,0,U,60240,999,10411,.23717E-3,.3041E-4,0
COLIBRI-S (RS67S),2024-199M,2026-06-04T06:11:50.773056,15.47164785,.00071498,97.3006,28.9987,338.6647,21.4304,0,U,61746,999,13541,.50221227E-3,.25478E-3,0
HORS 3 (RS81S),2024-199U,2026-06-04T06:42:46.696032,15.54050610,.00050101,97.2991,30.8710,348.9816,11.1327,0,U,61753,999,13555,.5968738E-3,.38704E-3,0
HORS 4 (RS82S),2024-199V,2026-06-04T06:40:15.614400,15.58446152,.00037896,97.2937,31.9904,341.4344,18.6773,0,U,61754,999,13563,.7011139E-3,.53577E-3,0
ARCTICSAT 1 (RS74S),2024-199AD,2026-06-04T01:02:46.561344,16.00815121,.0005603,97.2861,38.2010,197.5172,162.5915,0,U,61762,999,13601,.12212177E-2,.64706E-2,.19277461E-3
SIT-2086,2024-199AF,2026-06-04T07:21:40.973472,15.52161728,.00049848,97.2949,31.4197,322.8107,37.2799,0,U,61764,999,13243,.6494279E-3,.39352E-3,0
HYPERVIEW 1G (RS66S),2024-199AP,2026-06-04T06:51:01.297152,15.72518645,.00023438,97.2895,34.3835,324.1028,36.0078,0,U,61772,999,13264,.98218802E-3,.132641E-2,0
ALTAIR (RS65S),2024-199AW,2026-06-04T06:51:21.577824,15.36751515,.00125009,97.3039,24.7230,1.3442,358.7834,0,U,61779,999,13513,.31485466E-3,.11256E-3,0
ASRTU-1 (AO-123),2024-199AY,2026-06-04T06:18:01.035072,15.35480458,.00137409,97.3011,24.0505,3.1440,356.9888,0,U,61781,999,13194,.26071879E-3,.8936E-4,0
SAMSAT-IONOSPHERE (RS75S),2024-199BB,2026-06-04T06:29:27.426048,15.56459822,.00068941,97.2959,30.8641,341.8911,18.2098,0,U,61784,999,13555,.70806112E-3,.50265E-3,0
RTU MIREA 1 (RS51S),2024-199BC,2026-06-04T06:11:52.018080,15.59639875,.00063015,97.2949,31.6191,337.3734,22.7244,0,U,61785,999,13245,.78721873E-3,.63047E-3,0
TEVEL2-4,2025-052D,2026-06-02T05:56:32.581248,15.34050425,.00040908,97.3927,49.6197,133.0862,227.0724,0,U,63213,999,6782,.60334383E-3,.19833E-3,0
TEVEL2-5,2025-052E,2026-06-03T15:16:24.127104,15.33944349,.0004039,97.3916,50.9614,130.1667,229.9930,0,U,63214,999,6803,.6102E-3,.19992E-3,0
TEVEL2-6,2025-052F,2026-06-03T15:33:41.668416,15.33906822,.0004181,97.3918,50.9581,130.1242,230.0368,0,U,63215,999,6803,.61519E-3,.20133E-3,0
TEVEL2-1,2025-052H,2026-06-02T16:39:16.232832,15.33355434,.0003899,97.3886,49.6443,141.0246,219.1278,0,U,63217,999,6787,.61840095E-3,.19888E-3,0
TEVEL2-3,2025-052J,2026-06-03T05:04:02.160768,15.33427572,.0003877,97.3892,50.1814,141.5958,218.5561,0,U,63218,999,6795,.61001E-3,.19661E-3,0
TEVEL2-2,2025-052K,2026-06-03T14:35:25.631520,15.33398099,.00038129,97.3889,50.5598,141.3409,218.8107,0,U,63219,999,6801,.63027532E-3,.203E-3,0
TEVEL2-9,2025-052AD,2026-06-03T05:47:26.866752,15.31447810,.0006417,97.3950,49.5986,171.9085,188.2261,0,U,63237,999,6789,.59759E-3,.18105E-3,0
TEVEL2-7,2025-052AE,2026-06-03T14:33:06.588864,15.31176236,.00064176,97.3955,49.8841,171.2563,188.8791,0,U,63238,999,6794,.58397265E-3,.17541E-3,0
TEVEL2-8,2025-052AF,2026-06-03T22:35:19.148640,15.31169698,.0006473,97.3952,50.1954,170.8239,189.3121,0,U,63239,999,6799,.57066E-3,.17135E-3,0
INNOSAT 16 (RS92S7),2025-155C,2026-06-04T06:37:08.287968,15.25313992,.00090719,97.4562,122.4469,223.4854,136.5669,0,U,64878,999,7870,.26279247E-3,.6554E-4,0
GEOSCAN 6 (RS92S6),2025-155D,2026-06-04T07:08:41.961696,15.29897928,.00066147,97.4555,123.8029,208.2666,151.8216,0,U,64879,999,7879,.38683074E-3,.11133E-3,0
GEOSCAN 1 (RS92S1),2025-155E,2026-06-04T05:45:10.557792,15.30473358,.0006509,97.4552,123.8816,208.2464,151.8425,0,U,64880,999,7879,.42044227E-3,.12326E-3,0
239ALFEROV (RS61S),2025-155F,2026-06-04T07:01:37.212384,15.32580850,.00061308,97.4554,124.4538,204.3562,155.7391,0,U,64881,999,7883,.47662885E-3,.14937E-3,0
GEOSCAN 2 (RS92S2),2025-155Q,2026-06-04T05:39:23.174496,15.30745000,.00063945,97.4551,124.0250,191.9436,168.1654,0,U,64890,999,7880,.40377182E-3,.11934E-3,0
GEOSCAN 5 (RS92S5),2025-155R,2026-06-04T06:49:40.207296,15.32897809,.00048196,97.4545,124.5780,207.6493,152.4493,0,U,64891,999,7884,.50870921E-3,.16106E-3,0
GEOSCAN 4 (RS92S4),2025-155S,2026-06-04T06:28:43.598784,15.33045311,.00048728,97.4549,124.6081,208.6799,151.4176,0,U,64892,999,7884,.5258366E-3,.1673E-3,0
